NORAD_CAT_ID,OBJECT_NAME,OBJECT_TYPE,EPOCH,MEAN_MOTION,ECCENTRICITY,INCLINATION,RA_OF_ASC_NODE,ARG_OF_PERICENTER,MEAN_ANOMALY,BSTAR,MEAN_MOTION_DOT,MEAN_MOTION_DDOT,TLE_LINE0,TLE_LINE1,TLE_LINE2,SEMIMAJOR_AXIS,PERIOD,APOGEE,PERIGEE,DECAYED
52092.0,STARLINK-3716,PAYLOAD,2023-05-06 05:43:46,15.08838825,0.0001242,53.2165,70.9062,92.1249,267.9885,9.4034e-05,1.209e-05,0.0,0 STARLINK-3716,1 52092U 22029E   23126.23872732  .00001209  00000-0  94034-4 0  9997,2 52092  53.2165  70.9062 0001242  92.1249 267.9885 15.08838825 63880,6917.884,95.438,540.608,538.89,0.0
52092.0,STARLINK-3716,PAYLOAD,2023-05-07 02:23:45,15.08859461,0.0001182,53.216,67.0411,94.4824,265.6303,0.00027614,4.112e-05,0.0,0 STARLINK-3716,1 52092U 22029E   23127.09983518  .00004112  00000-0  27614-3 0  9992,2 52092  53.2160  67.0411 0001182  94.4824 265.6303 15.08859461 64012,6917.821,95.436,540.504,538.868,0.0
52092.0,STARLINK-3716,PAYLOAD,2023-05-07 05:34:32,15.08862638,0.000124,53.216,66.4453,92.89,267.2234,0.00050554,7.772e-05,0.0,0 STARLINK-3716,1 52092U 22029E   23127.23231503  .00007772  00000-0  50554-3 0  9992,2 52092  53.2160  66.4453 0001240  92.8900 267.2234 15.08862638 64036,6917.811,95.436,540.534,538.818,0.0
52092.0,STARLINK-3716,PAYLOAD,2023-05-08 02:14:33,15.08839729,0.0001072,53.2159,62.5811,102.9224,257.1887,0.00013379,1.842e-05,0.0,0 STARLINK-3716,1 52092U 22029E   23128.09344513  .00001842  00000-0  13379-3 0  9999,2 52092  53.2159  62.5811 0001072 102.9224 257.1887 15.08839729 64165,6917.881,95.438,540.488,539.005,0.0
52092.0,STARLINK-3716,PAYLOAD,2023-05-09 02:05:20,15.08849774,0.0001258,53.2169,58.1197,110.3194,249.7934,0.00069599,0.00010809,0.0,0 STARLINK-3716,1 52092U 22029E   23129.08704700  .00010809  00000-0  69599-3 0  9995,2 52092  53.2169  58.1197 0001258 110.3194 249.7934 15.08849774 64317,6917.851,95.437,540.586,538.845,0.0
52092.0,STARLINK-3716,PAYLOAD,2023-05-10 01:56:08,15.0884356,0.0001065,53.2167,53.6609,98.1982,261.9131,0.00027398,4.076e-05,0.0,0 STARLINK-3716,1 52092U 22029E   23130.08064983  .00004076  00000-0  27398-3 0  9999,2 52092  53.2167  53.6609 0001065  98.1982 261.9131 15.08843560 64465,6917.87,95.437,540.471,538.998,0.0
52092.0,STARLINK-3716,PAYLOAD,2023-05-11 01:46:55,15.08849169,0.0001293,53.2174,49.2035,111.2312,248.8818,0.00034459,5.202e-05,0.0,0 STARLINK-3716,1 52092U 22029E   23131.07424823  .00005202  00000-0  34459-3 0  9990,2 52092  53.2174  49.2035 0001293 111.2312 248.8818 15.08849169 64618,6917.852,95.437,540.612,538.823,0.0
52092.0,STARLINK-3716,PAYLOAD,2023-05-12 00:02:19,15.08835934,0.0001075,53.2164,45.0392,97.7212,262.3902,4.9522e-05,5e-06,0.0,0 STARLINK-3716,1 52092U 22029E   23132.00161500  .00000500  00000-0  49522-4 0  9998,2 52092  53.2164  45.0392 0001075  97.7212 262.3902 15.08835934 64757,6917.893,95.438,540.501,539.014,0.0
52092.0,STARLINK-3716,PAYLOAD,2023-05-13 03:03:52,15.0885614,0.000109,53.2157,39.984,104.9623,255.149,0.00056181,8.669e-05,0.0,0 STARLINK-3716,1 52092U 22029E   23133.12769007  .00008669  00000-0  56181-3 0  9990,2 52092  53.2157  39.9840 0001090 104.9623 255.1490 15.08856140 64926,6917.831,95.437,540.45,538.942,0.0
52092.0,STARLINK-3716,PAYLOAD,2023-05-14 02:54:39,15.08850018,0.0001228,53.2167,35.5202,95.643,264.4702,0.00045912,7.029e-05,0.0,0 STARLINK-3716,1 52092U 22029E   23134.12129475  .00007029  00000-0  45912-3 0  9999,2 52092  53.2167  35.5202 0001228  95.6430 264.4702 15.08850018 65070,6917.85,95.437,540.564,538.865,0.0
52092.0,STARLINK-3716,PAYLOAD,2023-05-14 20:23:54,15.08840417,0.0001288,53.2166,32.2486,92.8465,267.2674,0.00027611,4.109e-05,0.0,0 STARLINK-3716,1 52092U 22029E   23134.84993776  .00004109  00000-0  27611-3 0  9993,2 52092  53.2166  32.2486 0001288  92.8465 267.2674 15.08840417 65183,6917.879,95.438,540.635,538.853,0.0
52092.0,STARLINK-3716,PAYLOAD,2023-05-14 23:34:40,15.08844554,0.0001325,53.2175,31.6538,95.3982,264.7162,0.00021643,3.159e-05,0.0,0 STARLINK-3716,1 52092U 22029E   23134.98241611  .00003159  00000-0  21643-3 0  9995,2 52092  53.2175  31.6538 0001325  95.3982 264.7162 15.08844554 65201,6917.866,95.437,540.648,538.815,0.0
52092.0,STARLINK-3716,PAYLOAD,2023-05-15 10:42:22,15.08842485,0.000142,53.2178,29.5698,95.5372,264.5782,0.00027022,4.016e-05,0.0,0 STARLINK-3716,1 52092U 22029E   23135.44609554  .00004016  00000-0  27022-3 0  9991,2 52092  53.2178  29.5698 0001420  95.5372 264.5782 15.08842485 65272,6917.873,95.437,540.72,538.755,0.0
52092.0,STARLINK-3716,PAYLOAD,2023-05-15 21:50:04,15.08842583,0.0001533,53.2183,27.488,102.761,257.3554,0.00011425,1.531e-05,0.0,0 STARLINK-3716,1 52092U 22029E   23135.90977653  .00001531  00000-0  11425-3 0  9999,2 52092  53.2183  27.4880 0001533 102.7610 257.3554 15.08842583 65343,6917.872,95.437,540.798,538.677,0.0
52092.0,STARLINK-3716,PAYLOAD,2023-05-16 21:40:51,15.08839041,0.0001558,53.2188,23.0277,104.4479,255.6686,0.00014762,2.062e-05,0.0,0 STARLINK-3716,1 52092U 22029E   23136.90337795  .00002062  00000-0  14762-3 0  9994,2 52092  53.2188  23.0277 0001558 104.4479 255.6686 15.08839041 65497,6917.883,95.438,540.826,538.671,0.0
52092.0,STARLINK-3716,PAYLOAD,2023-05-17 02:27:01,15.08843539,0.0001295,53.2174,22.1393,85.2422,274.8718,4.4732e-05,4.24e-06,0.0,0 STARLINK-3716,1 52092U 22029E   23137.10209592  .00000424  00000-0  44732-4 0  9991,2 52092  53.2174  22.1393 0001295  85.2422 274.8718 15.08843539 65523,6917.87,95.437,540.63,538.839,0.0
52092.0,STARLINK-3716,PAYLOAD,2023-05-17 16:45:29,15.08835296,0.000129,53.2173,19.4633,85.0374,275.0765,4.5193e-05,4.31e-06,0.0,0 STARLINK-3716,1 52092U 22029E   23137.69826055  .00000431  00000-0  45193-4 0  9994,2 52092  53.2173  19.4633 0001290  85.0374 275.0765 15.08835296 65613,6917.895,95.438,540.652,538.867,0.0
52092.0,STARLINK-3716,PAYLOAD,2023-05-17 21:31:37,15.08868903,0.0001357,53.2171,18.5695,81.1679,278.9467,-0.00040541,-6.739e-05,0.0,0 STARLINK-3716,1 52092U 22029E   23137.89696622 -.00006739  00000-0 -40541-3 0  9991,2 52092  53.2171  18.5695 0001357  81.1679 278.9467 15.08868903 65643,6917.792,95.436,540.596,538.718,0.0
52092.0,STARLINK-3716,PAYLOAD,2023-05-18 02:17:48,15.08843622,0.0001152,53.217,17.68,93.2745,266.8379,0.00014636,2.042e-05,0.0,0 STARLINK-3716,1 52092U 22029E   23138.09569609  .00002042  00000-0  14636-3 0  9995,2 52092  53.2170  17.6800 0001152  93.2745 266.8379 15.08843622 65673,6917.869,95.437,540.531,538.937,0.0
52092.0,STARLINK-3716,PAYLOAD,2023-05-18 22:57:49,15.08836007,0.0001141,53.2167,13.8141,89.2978,270.8145,-2.7671e-06,-3.32e-06,0.0,0 STARLINK-3716,1 52092U 22029E   23138.95682106 -.00000332  00000-0 -27671-5 0  9995,2 52092  53.2167  13.8141 0001141  89.2978 270.8145 15.08836007 65806,6917.893,95.438,540.547,538.968,0.0
52092.0,STARLINK-3716,PAYLOAD,2023-05-19 00:33:12,15.08838297,0.0001164,53.2172,13.5166,86.5323,273.5802,8.0897e-06,-1.59e-06,0.0,0 STARLINK-3716,1 52092U 22029E   23139.02306023 -.00000159  00000-0  80897-5 0  9990,2 52092  53.2172  13.5166 0001164  86.5323 273.5802 15.08838297 65819,6917.886,95.438,540.556,538.945,0.0
52092.0,STARLINK-3716,PAYLOAD,2023-05-19 21:13:13,15.08841482,0.0001123,53.217,9.6506,85.3141,274.798,6.7116e-05,7.81e-06,0.0,0 STARLINK-3716,1 52092U 22029E   23139.88418052  .00000781  00000-0  67116-4 0  9998,2 52092  53.2170   9.6506 0001123  85.3141 274.7980 15.08841482 65945,6917.876,95.437,540.518,538.964,0.0
52092.0,STARLINK-3716,PAYLOAD,2023-05-20 17:53:13,15.08849576,0.000116,53.218,5.785,78.9453,281.1669,0.00020784,3.022e-05,0.0,0 STARLINK-3716,1 52092U 22029E   23140.74529463  .00003022  00000-0  20784-3 0  9994,2 52092  53.2180   5.7850 0001160  78.9453 281.1669 15.08849576 66073,6917.851,95.437,540.519,538.914,0.0
52092.0,STARLINK-3716,PAYLOAD,2023-05-20 21:03:59,15.08851001,9.37e-05,53.2173,5.1903,90.3072,269.8028,0.00022066,3.227e-05,0.0,0 STARLINK-3716,1 52092U 22029E   23140.87777363  .00003227  00000-0  22066-3 0  9994,2 52092  53.2173   5.1903 0000937  90.3072 269.8028 15.08851001 66094,6917.847,95.437,540.36,539.064,0.0
52092.0,STARLINK-3716,PAYLOAD,2023-05-20 22:39:22,15.08861266,0.0001025,53.2167,4.8929,88.5514,271.5596,0.00028035,4.179e-05,0.0,0 STARLINK-3716,1 52092U 22029E   23140.94400796  .00004179  00000-0  28035-3 0  9994,2 52092  53.2167   4.8929 0001025  88.5514 271.5596 15.08861266 66106,6917.815,95.436,540.389,538.971,0.0
52092.0,STARLINK-3716,PAYLOAD,2023-05-21 14:33:15,15.08833849,0.0001256,53.2167,1.9195,89.3961,270.7175,-7.6558e-05,-1.506e-05,0.0,0 STARLINK-3716,1 52092U 22029E   23141.60642541 -.00001506  00000-0 -76558-4 0  9991,2 52092  53.2167   1.9195 0001256  89.3961 270.7175 15.08833849 66201,6917.899,95.438,540.633,538.895,0.0
52092.0,STARLINK-3716,PAYLOAD,2023-05-21 17:44:01,15.0882718,0.0001182,53.2176,1.3205,106.449,253.6632,-0.00020651,-3.572e-05,0.0,0 STARLINK-3716,1 52092U 22029E   23141.73890621 -.00003572  00000-0 -20651-3 0  9996,2 52092  53.2176   1.3205 0001182 106.4490 253.6632 15.08827180 66224,6917.92,95.438,540.602,538.967,0.0
52092.0,STARLINK-3716,PAYLOAD,2023-05-21 20:54:48,15.08828082,0.0001253,53.218,0.7258,93.4765,266.6371,-0.00013734,-2.472e-05,0.0,0 STARLINK-3716,1 52092U 22029E   23141.87139042 -.00002472  00000-0 -13734-3 0  9996,2 52092  53.2180   0.7258 0001253  93.4765 266.6371 15.08828082 66247,6917.917,95.438,540.649,538.915,0.0
52092.0,STARLINK-3716,PAYLOAD,2023-05-22 08:02:30,15.08831208,0.000124,53.2183,358.6448,89.9035,270.2099,-1.3313e-05,-5e-06,0.0,0 STARLINK-3716,1 52092U 22029E   23142.33507341 -.00000500  00000-0 -13313-4 0  9993,2 52092  53.2183 358.6448 0001240  89.9035 270.2099 15.08831208 66312,6917.907,95.438,540.63,538.914,0.0
52092.0,STARLINK-3716,PAYLOAD,2023-05-22 20:45:35,15.08844325,0.0001092,53.2172,356.2676,77.468,282.6434,0.00032472,4.884e-05,0.0,0 STARLINK-3716,1 52092U 22029E   23142.86499070  .00004884  00000-0  32472-3 0  9993,2 52092  53.2172 356.2676 0001092  77.4680 282.6434 15.08844325 66392,6917.867,95.437,540.488,538.977,0.0
